CUBEBUG-2 (LO-74)       
1 39440U 13066AA  26158.75189183  .00005333  00000+0  49259-3 0  9995
2 39440  97.8907 107.6906 0059310  59.6684 301.0383 14.93689124675583
FUNCUBE-1 (AO-73)       
1 39444U 13066AE  26159.17346100  .00005422  00000+0  33894-3 0  9997
2 39444  97.8274 130.4319 0034724 232.3552 127.4524 15.09382626678307
UWE-3                   
1 39446U 13066AG  26159.12517313  .00004591  00000+0  39518-3 0  9995
2 39446  97.8687 115.1387 0048868 351.6421   8.3981 14.96953360676223
UNISAT-6                
1 40012U 14033C   26158.92201705  .00003516  00000+0  37971-3 0  9990
2 40012  97.7873 311.7985 0046450  98.9247 261.7232 14.88198016644780
DUCHIFAT-1              
1 40021U 14033M   26159.12664081  .00107166  00000+0  11780-2 0  9998
2 40021  98.0465 217.0282 0004621 132.1747 227.9902 15.62815586654330
QB50P1                  
1 40025U 14033R   26158.98870316  .00009215  00000+0  45488-3 0  9994
2 40025  98.0970 169.4906 0007153 252.8100 107.2349 15.18121687651632
LILACSAT-2              
1 40908U 15049K   26159.17715811  .00018201  00000+0  31311-3 0  9997
2 40908  97.4659 195.6778 0005277 288.9416  71.1263 15.51148907594352
FOX-1A (AO-85)          
1 40967U 15058D   26158.76074733  .00003179  00000+0  28859-3 0  9998
2 40967  64.7762 308.2774 0129935  60.2802 301.1167 14.90923768112167
CAS-2T & KS-1Q          
1 41847U 16066G   26159.16729182  .00001763  00000+0  25447-3 0  9993
2 41847  98.3822 235.0065 0342445 156.7734 204.9360 14.44664571503491
RADFXSAT (FOX-1B)       
1 43017U 17073E   26158.88082012  .00009506  00000+0  41497-3 0  9991
2 43017  97.4721  26.2863 0150955   1.5297 358.6365 15.12564477463981
DIWATA-2B               
1 43678U 18084H   26159.16689957  .00002336  00000+0  19081-3 0  9998
2 43678  98.1169 354.9843 0011994 200.0320 160.0433 15.00408860414863
ES'HAIL 2               
1 43700U 18090A   26158.90104545  .00000159  00000+0  00000+0 0  9995
2 43700   0.0153  51.7811 0001905  61.1895 133.5104  1.00273859 27587
FOX-1CLIFF (AO-95)      
1 43770U 18099N   26159.16339021  .00009417  00000+0  36286-3 0  9994
2 43770  97.4386 219.4444 0008916  30.0616 330.1133 15.26519996411843
ITASAT                  
1 43786U 18099AE  26159.12858899  .00007372  00000+0  35522-3 0  9996
2 43786  97.4031 210.8218 0013095  31.6283 328.5736 15.18945561411530
JY1SAT (JO-97)          
1 43803U 18099AX  26159.15623610  .00013771  00000+0  42915-3 0  9994
2 43803  97.4132 221.9612 0004245 308.5712  51.5149 15.33366005412240
UWE-4                   
1 43880U 18111E   26158.76428060  .00033394  00000+0  69481-3 0  9992
2 43880  97.5856  86.7246 0007278  18.3165 341.8344 15.45534783409326
TIANYAN 01              
1 44881U 19093C   26159.15944207  .00001401  00000+0  16408-3 0  9999
2 44881  97.7527 231.6113 0014905 113.7399 246.5382 14.86506413350076
RS-44 & BREEZE-KM R/B   
1 44909U 19096E   26159.01431068  .00000019  00000+0  26984-4 0  9999
2 44909  82.5217 345.8017 0217756 165.5613 195.1847 12.79748641301172
SALSAT                  
1 46495U 20068K   26158.98778249  .00008175  00000+0  28698-3 0  9996
2 46495  97.8853 161.4934 0008912 345.1768  14.9208 15.29667638313950
XW-3 (CAS-9)            
1 50466U 21131B   26159.16892968  .00000576  00000+0  19144-3 0  9990
2 50466  98.4973 251.6076 0005233 117.3027 242.8695 14.41349632233814
GREENCUBE (IO-117)      
1 53109U 22080E   26152.46502029 -.00000003  00000+0  00000+0 0  9996
2 53109  70.1435 303.7143 0008869 293.3663  66.6064  6.42583280 91055
UMKA 1 (RS40S)          
1 57172U 23091G   26159.14534286  .00005345  00000+0  24568-3 0  9997
2 57172  97.5052 217.8778 0013798 145.9933 214.2189 15.20713083162639
CUBESX-HSE 3 (RS42S)    
1 57178U 23091N   26159.15492808  .00010996  00000+0  36900-3 0  9998
2 57178  97.5093 224.6294 0012134 122.4970 237.7445 15.30985083163046
MONITOR-3 (RS58S)       
1 57180U 23091Q   26159.15962481  .00008547  00000+0  31813-3 0  9997
2 57180  97.5085 222.5406 0013031 128.6737 231.5670 15.27658283162910
MONITOR-4 (RS57S)       
1 57182U 23091S   26159.13920394  .00008758  00000+0  32499-3 0  9999
2 57182  97.5078 222.4907 0012983 129.0943 231.1452 15.27752455162918
MONITOR-2 (RS39S)       
1 57184U 23091U   26159.15531257  .00004486  00000+0  21840-3 0  9991
2 57184  97.5075 217.4971 0012364 138.7938 221.4232 15.18826190162585
SVYATOBOR 1 (RS60S)     
1 57187U 23091X   26159.14459030  .00007934  00000+0  30664-3 0  9996
2 57187  97.5090 222.9125 0010835 121.4888 238.7410 15.26459931162933
VIZARD-METEO (RS38S)    
1 57189U 23091Z   26159.15676221  .00014676  00000+0  42378-3 0  9998
2 57189  97.5091 228.4630 0008707 104.5087 255.7123 15.35736862163309
POLYTECH-UNIVERSE 3 (R*)
1 57191U 23091AB  26159.11783240  .00006020  00000+0  28976-3 0  9999
2 57191  97.5049 216.9644 0016272 156.0512 204.1482 15.19027238162579
UTMN 2 (RS27S)          
1 57203U 23091AP  26159.11214544  .00013800  00000+0  45068-3 0  9994
2 57203  97.5088 226.2089 0009485 110.6914 249.5345 15.31829938163150
